{
  "type": "FeatureCollection",
  "features": [
    {
      "type": "Feature",
      "properties": { "district": 1 },
      "geometry": {
        "type": "Polygon",
        "coordinates": [[
          [-75.1800, 39.8700],
          [-75.1800, 39.9400],
          [-75.1400, 39.9400],
          [-75.1000, 39.9400],
          [-75.0500, 39.9200],
          [-75.0500, 39.8700],
          [-75.1800, 39.8700]
        ]]
      }
    },
    {
      "type": "Feature",
      "properties": { "district": 2 },
      "geometry": {
        "type": "Polygon",
        "coordinates": [[
          [-75.1800, 39.9400],
          [-75.1800, 39.9700],
          [-75.1400, 39.9700],
          [-75.1400, 39.9400],
          [-75.1800, 39.9400]
        ]]
      }
    },
    {
      "type": "Feature",
      "properties": { "district": 3 },
      "geometry": {
        "type": "Polygon",
        "coordinates": [[
          [-75.2800, 39.8700],
          [-75.2800, 39.9700],
          [-75.1800, 39.9700],
          [-75.1800, 39.8700],
          [-75.2800, 39.8700]
        ]]
      }
    },
    {
      "type": "Feature",
      "properties": { "district": 4 },
      "geometry": {
        "type": "Polygon",
        "coordinates": [[
          [-75.2800, 39.9700],
          [-75.2800, 40.0200],
          [-75.1400, 40.0200],
          [-75.1400, 39.9700],
          [-75.2800, 39.9700]
        ]]
      }
    },
    {
      "type": "Feature",
      "properties": { "district": 5 },
      "geometry": {
        "type": "Polygon",
        "coordinates": [[
          [-75.1400, 39.9400],
          [-75.1400, 39.9900],
          [-75.0500, 39.9900],
          [-75.0500, 39.9200],
          [-75.1000, 39.9400],
          [-75.1400, 39.9400]
        ]]
      }
    },
    {
      "type": "Feature",
      "properties": { "district": 6 },
      "geometry": {
        "type": "Polygon",
        "coordinates": [[
          [-75.2800, 40.0200],
          [-75.2800, 40.1400],
          [-75.1700, 40.1400],
          [-75.1700, 40.0500],
          [-75.2000, 40.0200],
          [-75.2800, 40.0200]
        ]]
      }
    },
    {
      "type": "Feature",
      "properties": { "district": 7 },
      "geometry": {
        "type": "Polygon",
        "coordinates": [[
          [-75.2000, 40.0200],
          [-75.1700, 40.0500],
          [-75.1700, 40.1400],
          [-75.1200, 40.1400],
          [-75.1200, 40.0200],
          [-75.2000, 40.0200]
        ]]
      }
    },
    {
      "type": "Feature",
      "properties": { "district": 8 },
      "geometry": {
        "type": "Polygon",
        "coordinates": [[
          [-75.0500, 40.0200],
          [-75.0700, 40.0500],
          [-75.0700, 40.1400],
          [-74.9500, 40.1400],
          [-74.9500, 40.0200],
          [-75.0500, 40.0200]
        ]]
      }
    },
    {
      "type": "Feature",
      "properties": { "district": 9 },
      "geometry": {
        "type": "Polygon",
        "coordinates": [[
          [-75.1200, 40.0200],
          [-75.1200, 40.0500],
          [-75.1200, 40.1400],
          [-75.0700, 40.1400],
          [-75.0700, 40.0500],
          [-75.0500, 40.0200],
          [-75.1200, 40.0200]
        ]]
      }
    },
    {
      "type": "Feature",
      "properties": { "district": 10 },
      "geometry": {
        "type": "Polygon",
        "coordinates": [[
          [-75.1400, 39.9900],
          [-75.1400, 40.0200],
          [-75.0500, 40.0200],
          [-75.0500, 39.9900],
          [-75.1400, 39.9900]
        ]]
      }
    }
  ]
}
